GPS BIIF-8  (PRN 03)    
1 40294U 14068A   25066.75135734 -.00000036  00000+0  00000+0 0  9990
2 40294  56.6443  48.9818 0056182  63.6015 296.9769  2.00576560 75854
COSMOS 2501 (702K)      
1 40315U 14075A   25064.97983004  .00000050  00000+0  00000+0 0  9990
2 40315  63.6181 206.5854 0019745 205.1046 154.7740  2.13101255 79873
GPS BIIF-9  (PRN 26)    
1 40534U 15013A   25065.39663595  .00000049  00000+0  00000+0 0  9991
2 40534  53.2651 223.5327 0097628  34.5207 326.0770  2.00549437 72443
GSAT0203 (GALILEO 7)    
1 40544U 15017A   25061.01276257 -.00000087  00000+0  00000+0 0  9999
2 40544  56.9059 354.4574 0004661 291.9904  67.9666  1.70475386 61150
GSAT0204 (GALILEO 8)    
1 40545U 15017B   25061.26755611 -.00000087  00000+0  00000+0 0  9993
2 40545  56.9122 354.4670 0004226 281.5481  78.4114  1.70475279 24202
IRNSS-1D                
1 40547U 15018A   25066.92181872 -.00000278  00000+0  00000+0 0  9998
2 40547  26.9687 248.1000 0020426 180.7290 180.7454  1.00275866 36560
BEIDOU-3S IGSO-1S (C31) 
1 40549U 15019A   25064.62928826 -.00000134  00000+0  00000+0 0  9995
2 40549  50.0790 301.0843 0033884 194.8569 344.3900  1.00246947 36366
GPS BIIF-10 (PRN 08)    
1 40730U 15033A   25065.05845024 -.00000001  00000+0  00000+0 0  9992
2 40730  54.3661 286.3425 0104319  23.6636 336.8541  2.00553398 70603
BEIDOU-3S M2S (C58)     
1 40748U 15037A   25066.17192214 -.00000075  00000+0  00000+0 0  9996
2 40748  55.2735 318.0731 0009258 271.2818  88.6567  1.86229080 65421
BEIDOU-3S M1S (C57)     
1 40749U 15037B   25064.29166281 -.00000072  00000+0  00000+0 0  9990
2 40749  55.2718 318.1305 0004485   9.9817 350.0740  1.86253639 65373
GSAT0205 (GALILEO 9)    
1 40889U 15045A   25063.38232075  .00000048  00000+0  00000+0 0  9990
2 40889  55.1094 234.5790 0006082  48.2833 311.7306  1.70473573 59001
GSAT0206 (GALILEO 10)   
1 40890U 15045B   25066.53586933  .00000039  00000+0  00000+0 0  9997
2 40890  55.1073 234.4869 0003843  51.1409 308.8604  1.70473594 59089
BEIDOU-3S IGSO-2S (C56) 
1 40938U 15053A   25043.08725264 -.00000066  00000+0  00000+0 0  9997
2 40938  49.9805 264.5883 0052128 186.8108 174.8851  1.00251841 34448
GPS BIIF-11 (PRN 10)    
1 41019U 15062A   25065.11492290 -.00000037  00000+0  00000+0 0  9994
2 41019  56.6206  48.9012 0103023 228.4981 130.6164  2.00566591 68446
GSAT-15 (GAGAN/PRN 139) 
1 41028U 15065A   25067.06107181 -.00000273  00000+0  00000+0 0  9997
2 41028   0.0701 272.6843 0001574  89.3542 279.4464  1.00272227 34180
GSAT0209 (GALILEO 12)   
1 41174U 15079A   25064.35833657  .00000002  00000+0  00000+0 0  9996
2 41174  55.5506 114.1351 0004547 313.2630  46.7709  1.70474482 56785
GSAT0208 (GALILEO 11)   
1 41175U 15079B   25065.75142482 -.00000003  00000+0  00000+0 0  9993
2 41175  55.5499 114.0940 0004025 311.3909  48.6423  1.70474508 57222
GPS BIIF-12 (PRN 32)    
1 41328U 16007A   25066.19838283 -.00000010  00000+0  00000+0 0  9993
2 41328  55.2462 107.9969 0086808 241.3434 117.8428  2.00574526 66471
COSMOS 2514 (751)       
1 41330U 16008A   25065.90178106 -.00000073  00000+0  00000+0 0  9995
2 41330  65.2837 329.0028 0008893 215.0770 144.9060  2.13102538 70666
IRNSS-1F                
1 41384U 16015A   25066.80835727  .00000143  00000+0  00000+0 0  9998
2 41384   4.1916 109.0139 0020647 187.0759 193.2030  1.00276378 32997
BEIDOU-2 IGSO-6 (C13)   
1 41434U 16021A   25064.94133289 -.00000145  00000+0  00000+0 0  9991
2 41434  59.5679  42.7097 0053681 230.3028 325.3512  1.00263440 32780
IRNSS-1G                
1 41469U 16027A   25064.50461367 -.00000344  00000+0  00000+0 0  9999
2 41469   4.0497 110.0520 0005882 320.8525  43.5753  1.00264026 32482
GSAT0211 (GALILEO 14)   
1 41549U 16030A   25066.46162178  .00000040  00000+0  00000+0 0  9999
2 41549  55.2562 234.5288 0003453  26.0379 333.9467  1.70473641 54719
GSAT0210 (GALILEO 13)   
1 41550U 16030B   25066.71941168  .00000038  00000+0  00000+0 0  9990
2 41550  55.2554 234.5197 0001245 173.7019 186.2666  1.70473831 54710
BEIDOU-2 G7 (C03)       
1 41586U 16037A   25066.92155808 -.00000368  00000+0  00000+0 0  9994
2 41586   1.5179  67.4416 0010395 332.1611 208.5810  1.00271453  2214
E 117 W B (WAAS/PRN 131)
1 41589U 16038B   25064.49836358 -.00000019  00000+0  00000+0 0  9997
2 41589   0.0240  44.4502 0000218  25.6736 155.7676  1.00272794 31962
GSAT0207 (GALILEO 15)   
1 41859U 16069A   25066.41152771 -.00000004  00000+0  00000+0 0  9999
2 41859  55.2188 114.0157 0005183 299.3895  60.6264  1.70474514 51440
GSAT0212 (GALILEO 16)   
1 41860U 16069B   25059.22658973  .00000030  00000+0  00000+0 0  9995
2 41860  55.2123 114.2113 0003131 323.0873  36.9851  1.70474740 51570
GSAT0213 (GALILEO 17)   
1 41861U 16069C   25061.35446799  .00000024  00000+0  00000+0 0  9997
2 41861  55.2157 114.1594 0005152 281.5446  78.4869  1.70474972 51475
GSAT0214 (GALILEO 18)   
1 41862U 16069D   25062.67312728  .00000014  00000+0  00000+0 0  9997
2 41862  55.2155 114.1157 0004459 281.2806  78.7508  1.70474829 51626
SES-15 (WAAS/PRN 133)   
1 42709U 17026A   25066.65970900  .00000047  00000+0  00000+0 0  9992
2 42709   0.0364  66.2054 0000561 261.6712 306.0413  1.00269217  2767
QZS-2 (QZSS/PRN 194)    
1 42738U 17028A   25061.83100253 -.00000127  00000+0  00000+0 0  9997
2 42738  40.1616 250.0168 0745867 270.2730  81.0383  1.00263772  2906
QZS-3 (QZSS/PRN 199)    
1 42917U 17048A   25066.78201624 -.00000362  00000+0  00000+0 0  9992
2 42917   0.0559 158.4661 0002508 188.0837 227.7220  1.00271982 27589
COSMOS 2522 (752)       
1 42939U 17055A   25064.33316108  .00000057  00000+0  00000+0 0  9997
2 42939  64.0796 207.8486 0006665 228.8784 131.0378  2.13101706 57981
QZS-4 (QZSS/PRN 195)    
1 42965U 17062A   25065.37488889 -.00000334  00000+0  00000+0 0  9994
2 42965  40.3826 349.4532 0749119 269.7075 180.0058  1.00280385 27129
BEIDOU-3 M1 (C19)       
1 43001U 17069A   25064.90867154 -.00000009  00000+0  00000+0 0  9996
2 43001  56.2817  78.5571 0012331 303.7525  56.1669  1.86231042 49886
BEIDOU-3 M2 (C20)       
1 43002U 17069B   25064.84641703 -.00000009  00000+0  00000+0 0  9990
2 43002  56.2807  78.5958 0009724 322.3080  37.6608  1.86230822 49871
GSAT0215 (GALILEO 19)   
1 43055U 17079A   25061.99003185  .00000048  00000+0  00000+0 0  9990
2 43055  55.2364 234.4701 0000667  39.0811 320.8831  1.70474269 44953
GSAT0216 (GALILEO 20)   
1 43056U 17079B   25062.86811080  .00000048  00000+0  00000+0 0  9999
2 43056  55.2356 234.4459 0001498 321.7487  38.2012  1.70474418 44955
GSAT0217 (GALILEO 21)   
1 43057U 17079C   25062.50210937  .00000048  00000+0  00000+0 0  9995
2 43057  55.2333 234.4543 0001934 358.5382   1.4211  1.70474342 44962
GSAT0218 (GALILEO 22)   
1 43058U 17079D   25062.72215273  .00000048  00000+0  00000+0 0  9998
2 43058  55.2337 234.4456 0001731 304.4632  55.4807  1.70474331 44994
BEIDOU-3 M7 (C27)       
1 43107U 18003A   25065.13010021 -.00000076  00000+0  00000+0 0  9995
2 43107  54.7330 318.5844 0004535  61.9586 298.1316  1.86232293 48631
BEIDOU-3 M8 (C28)       
1 43108U 18003B   25066.14659452 -.00000076  00000+0  00000+0 0  9995
2 43108  54.7251 318.5333 0003322 286.1096  73.8976  1.86230800 48662
BEIDOU-3 M4 (C22)       
1 43207U 18018A   25063.36596972 -.00000007  00000+0  00000+0 0  9993
2 43207  56.2390  78.6887 0006664 342.1800  17.8366  1.86230925 47993
BEIDOU-3 M3 (C21)       
1 43208U 18018B   25062.35859754  .00000000  00000+0  00000+0 0  9994
2 43208  56.2375  78.7264 0009826 312.6179  47.3437  1.86231025 47978
BEIDOU-3 M9 (C29)       
1 43245U 18029A   25063.65145453 -.00000068  00000+0  00000+0 0  9990
2 43245  54.6093 316.3175 0001061 341.7549  18.2903  1.86232332 47154
BEIDOU-3 M10 (C30)      
1 43246U 18029B   25065.19298422 -.00000071  00000+0  00000+0 0  9991
2 43246  54.6057 316.2914 0005045  13.4114 346.6475  1.86228861 47167
COSMOS 2527 (756)       
1 43508U 18053A   25066.17007262  .00000025  00000+0  00000+0 0  9996
2 43508  65.3245  89.5139 0009797 244.1289 115.8223  2.13102234 52326
BEIDOU-2 IGSO-7 (C16)   
1 43539U 18057A   25064.60472361 -.00000145  00000+0  00000+0 0  9990
2 43539  55.1588 167.1226 0085546 234.9479  91.3176  1.00288203 24422
GSAT0221 (GALILEO 25)   
1 43564U 18060A   25062.03718543 -.00000090  00000+0  00000+0 0  9991
2 43564  57.2862 354.4951 0005577 303.4422  56.5121  1.70475213 41147
GSAT0222 (GALILEO 26)   
1 43565U 18060B   25065.18902751 -.00000103  00000+0  00000+0 0  9992
2 43565  57.2891 354.4126 0003955 284.9193  75.0424  1.70474985 41237
GSAT0219 (GALILEO 23)   
1 43566U 18060C   25060.13123374 -.00000084  00000+0  00000+0 0  9997
2 43566  57.2893 354.5507 0005051 310.5119  49.4489  1.70475233 41128
GSAT0220 (GALILEO 24)   
1 43567U 18060D   25062.11176882 -.00000090  00000+0  00000+0 0  9997
2 43567  57.2888 354.4975 0005572 300.6899  59.2630  1.70475060 41141
BEIDOU-3 M5 (C23)       
1 43581U 18062A   25064.88152978  .00000031  00000+0  00000+0 0  9995
2 43581  54.1088 198.2262 0001758 302.1507  57.7981  1.86228464 44914
BEIDOU-3 M6 (C24)       
1 43582U 18062B   25063.67211882  .00000043  00000+0  00000+0 0  9995
2 43582  54.1087 198.2565 0006020  41.9456 318.0651  1.86229195 44894
BEIDOU-3 M12 (C26)      
1 43602U 18067A   25064.68089658  .00000032  00000+0  00000+0 0  9997
2 43602  54.2007 196.9277 0008054  35.5921 324.4286  1.86227705 44395
BEIDOU-3 M11 (C25)      
1 43603U 18067B   25060.51895043  .00000038  00000+0  00000+0 0  9995
2 43603  54.1986 197.0335 0004663  31.0104 328.9696  1.86227159 44346
BEIDOU-3 M13 (C32)      
1 43622U 18072A   25066.38535975 -.00000004  00000+0  00000+0 0  9992
2 43622  56.2140  78.1124 0008915 301.5564  58.3942  1.86231080 43969
BEIDOU-3 M14 (C33)      
1 43623U 18072B   25065.17692890 -.00000009  00000+0  00000+0 0  9994
2 43623  56.2147  78.1460 0006366 320.9289  39.0615  1.86231076 43932
BEIDOU-3 M16 (C35)      
1 43647U 18078A   25064.26385869 -.00000070  00000+0  00000+0 0  9998
2 43647  54.5055 316.3733 0008217  21.2695 338.8119  1.86232158 43432
